{
  "type": "FeatureCollection",
  "name": "world_countries",
  "features": [
    {
      "type": "Feature",
      "id": "countries-1",
      "geometry": {
        "type": "Polygon",
        "coordinates": [[
          [73.5, 39.5], [75.0, 45.0], [80.0, 47.0], [87.0, 49.0], [96.0, 48.0],
          [101.0, 53.0], [110.0, 53.5], [119.0, 53.0], [123.0, 52.0], [127.0, 50.0],
          [131.0, 48.0], [134.0, 48.0], [135.0, 45.0], [131.0, 43.0], [129.0, 42.0],
          [126.0, 41.0], [124.0, 40.0], [122.0, 39.0], [121.0, 37.0], [120.0, 35.0],
          [121.0, 33.0], [122.0, 31.0], [121.0, 29.0], [120.0, 27.0], [118.0, 25.0],
          [116.0, 23.0], [114.0, 22.0], [110.0, 21.0], [108.0, 20.0], [106.0, 18.0],
          [104.0, 17.0], [102.0, 16.0], [100.0, 17.0], [98.0, 20.0], [97.0, 24.0],
          [98.0, 28.0], [97.0, 31.0], [95.0, 33.0], [92.0, 35.0], [88.0, 36.0],
          [85.0, 37.0], [82.0, 38.0], [79.0, 38.0], [76.0, 38.0], [74.0, 39.0],
          [73.5, 39.5]
        ]]
      },
      "properties": { "name": "China", "continent": "Asia", "area_km2": 9596961, "population": 1412 }
    },
    {
      "type": "Feature",
      "id": "countries-2",
      "geometry": {
        "type": "Polygon",
        "coordinates": [[
          [-125.0, 49.0], [-124.0, 48.0], [-123.0, 46.0], [-124.0, 43.0], [-124.0, 40.0],
          [-122.0, 37.0], [-120.0, 34.0], [-117.0, 32.5], [-114.0, 32.5], [-110.0, 31.5],
          [-106.0, 31.5], [-104.0, 29.0], [-102.0, 29.0], [-100.0, 28.0], [-97.0, 26.0],
          [-94.0, 29.0], [-90.0, 29.0], [-88.0, 30.0], [-85.0, 30.0], [-83.0, 28.0],
          [-81.0, 25.0], [-80.0, 25.0], [-80.0, 27.0], [-81.0, 30.0], [-81.0, 32.0],
          [-79.0, 34.0], [-76.0, 36.5], [-75.0, 38.0], [-74.0, 40.0], [-73.0, 41.0],
          [-71.0, 42.0], [-70.0, 43.0], [-70.0, 45.0], [-67.0, 45.0], [-67.0, 47.0],
          [-69.0, 47.0], [-71.0, 45.0], [-73.0, 44.0], [-76.0, 44.0], [-78.0, 43.0],
          [-79.0, 43.0], [-80.0, 42.0], [-83.0, 42.0], [-84.0, 43.0], [-86.0, 44.0],
          [-87.0, 45.0], [-88.0, 46.0], [-89.0, 47.0], [-92.0, 48.0], [-95.0, 49.0],
          [-97.0, 49.0], [-100.0, 49.0], [-104.0, 49.0], [-108.0, 49.0], [-111.0, 49.0],
          [-114.0, 49.0], [-117.0, 49.0], [-120.0, 48.5], [-123.0, 48.5], [-125.0, 49.0]
        ]]
      },
      "properties": { "name": "United States", "continent": "North America", "area_km2": 9833517, "population": 331 }
    },
    {
      "type": "Feature",
      "id": "countries-3",
      "geometry": {
        "type": "Polygon",
        "coordinates": [[
          [113.0, -22.0], [114.0, -26.0], [115.0, -34.0], [118.0, -35.0], [122.0, -33.0],
          [124.0, -32.0], [126.0, -32.0], [129.0, -32.0], [132.0, -31.0], [135.0, -32.0],
          [137.0, -35.0], [139.0, -37.0], [141.0, -38.0], [144.0, -38.0], [147.0, -38.0],
          [150.0, -37.0], [153.0, -32.0], [153.0, -28.0], [152.0, -25.0], [150.0, -23.0],
          [148.0, -20.0], [146.0, -19.0], [145.0, -17.0], [143.0, -15.0], [142.0, -12.0],
          [141.0, -11.0], [138.0, -11.0], [136.0, -12.0], [135.0, -14.0], [132.0, -12.0],
          [130.0, -12.0], [128.0, -14.0], [126.0, -14.0], [124.0, -16.0], [122.0, -17.0],
          [120.0, -19.0], [118.0, -20.0], [116.0, -21.0], [114.0, -22.0], [113.0, -22.0]
        ]]
      },
      "properties": { "name": "Australia", "continent": "Oceania", "area_km2": 7692024, "population": 26 }
    },
    {
      "type": "Feature",
      "id": "countries-4",
      "geometry": {
        "type": "Polygon",
        "coordinates": [[
          [-52.0, 4.0], [-50.0, 2.0], [-48.0, 0.0], [-46.0, -2.0], [-44.0, -3.0],
          [-42.0, -3.0], [-40.0, -5.0], [-38.0, -7.0], [-37.0, -9.0], [-36.0, -11.0],
          [-35.0, -13.0], [-37.0, -15.0], [-39.0, -17.0], [-40.0, -19.0], [-41.0, -21.0],
          [-43.0, -23.0], [-46.0, -24.0], [-48.0, -25.0], [-50.0, -26.0], [-52.0, -27.0],
          [-54.0, -28.0], [-56.0, -30.0], [-58.0, -32.0], [-57.0, -34.0], [-54.0, -34.0],
          [-52.0, -33.0], [-50.0, -31.0], [-48.0, -29.0], [-46.0, -27.0], [-44.0, -25.0],
          [-42.0, -23.0], [-40.0, -21.0], [-39.0, -19.0], [-38.0, -17.0], [-37.0, -15.0],
          [-36.0, -13.0], [-35.0, -11.0], [-35.0, -9.0], [-36.0, -7.0], [-38.0, -5.0],
          [-40.0, -3.0], [-42.0, -1.0], [-44.0, 0.0], [-46.0, 1.0], [-48.0, 2.0],
          [-50.0, 3.0], [-52.0, 4.0]
        ]]
      },
      "properties": { "name": "Brazil", "continent": "South America", "area_km2": 8515767, "population": 214 }
    },
    {
      "type": "Feature",
      "id": "countries-5",
      "geometry": {
        "type": "Polygon",
        "coordinates": [[
          [68.0, 23.0], [68.0, 25.0], [70.0, 27.0], [72.0, 29.0], [74.0, 31.0],
          [76.0, 32.0], [78.0, 33.0], [80.0, 33.0], [82.0, 32.0], [84.0, 31.0],
          [86.0, 30.0], [88.0, 29.0], [89.0, 28.0], [90.0, 27.0], [92.0, 26.0],
          [94.0, 25.0], [95.0, 24.0], [96.0, 22.0], [97.0, 20.0], [96.0, 18.0],
          [94.0, 16.0], [92.0, 15.0], [90.0, 14.0], [88.0, 12.0], [86.0, 11.0],
          [84.0, 10.0], [82.0, 9.0], [80.0, 8.0], [78.0, 8.0], [77.0, 9.0],
          [76.0, 10.0], [75.0, 12.0], [74.0, 14.0], [73.0, 16.0], [72.0, 18.0],
          [71.0, 20.0], [70.0, 22.0], [69.0, 23.0], [68.0, 23.0]
        ]]
      },
      "properties": { "name": "India", "continent": "Asia", "area_km2": 3287263, "population": 1408 }
    },
    {
      "type": "Feature",
      "id": "countries-6",
      "geometry": {
        "type": "Polygon",
        "coordinates": [[
          [27.0, 59.0], [30.0, 60.0], [35.0, 61.0], [40.0, 62.0], [45.0, 63.0],
          [50.0, 64.0], [55.0, 65.0], [60.0, 66.0], [65.0, 67.0], [70.0, 68.0],
          [75.0, 69.0], [80.0, 70.0], [85.0, 71.0], [90.0, 72.0], [95.0, 73.0],
          [100.0, 74.0], [105.0, 75.0], [110.0, 76.0], [115.0, 77.0], [120.0, 78.0],
          [125.0, 79.0], [130.0, 80.0], [135.0, 80.0], [140.0, 79.0], [145.0, 78.0],
          [150.0, 77.0], [155.0, 76.0], [160.0, 75.0], [165.0, 74.0], [170.0, 73.0],
          [175.0, 72.0], [180.0, 71.0], [178.0, 70.0], [175.0, 69.0], [170.0, 68.0],
          [165.0, 67.0], [160.0, 66.0], [155.0, 65.0], [150.0, 64.0], [145.0, 63.0],
          [140.0, 62.0], [135.0, 61.0], [130.0, 60.0], [125.0, 59.0], [120.0, 58.0],
          [115.0, 57.0], [110.0, 56.0], [105.0, 55.0], [100.0, 54.0], [95.0, 53.0],
          [90.0, 52.0], [85.0, 51.0], [80.0, 50.0], [75.0, 49.0], [70.0, 48.0],
          [65.0, 47.0], [60.0, 46.0], [55.0, 45.0], [50.0, 44.0], [45.0, 43.0],
          [40.0, 42.0], [35.0, 41.0], [30.0, 40.0], [28.0, 41.0], [27.0, 42.0],
          [26.0, 43.0], [25.0, 44.0], [24.0, 45.0], [23.0, 46.0], [22.0, 47.0],
          [21.0, 48.0], [20.0, 49.0], [19.0, 50.0], [18.0, 51.0], [17.0, 52.0],
          [16.0, 53.0], [15.0, 54.0], [14.0, 55.0], [13.0, 56.0], [12.0, 57.0],
          [11.0, 58.0], [10.0, 59.0], [27.0, 59.0]
        ]]
      },
      "properties": { "name": "Russia", "continent": "Europe", "area_km2": 17098242, "population": 144 }
    }
  ]
}